start=new Date('2022-10-03T00:00:00.000Z').valueOf();
sats=[{"TLE_LINE2":"2 53144  53.2191  42.5203 0001864  42.2430 263.1719 15.08838523  1306","PERIOD":"95.438","REF_FRAME":"TEME","SITE":"AFETR","OBJECT_ID":"2022-083N","LAUNCH_DATE":"2022-07-17","TIME_SYSTEM":"UTC","MEAN_ELEMENT_THEORY":"SGP4","SEMIMAJOR_AXIS":"6917.885","DECAY_DATE":null,"MEAN_MOTION_DDOT":"0.0000000000000","NORAD_CAT_ID":"53144","OBJECT_TYPE":"PAYLOAD","APOAPSIS":"541.039","RCS_SIZE":"LARGE","COUNTRY_CODE":"US","OBJECT_NAME":"STARLINK-4100","RA_OF_ASC_NODE":"42.5203","GP_ID":"214051730","MEAN_ANOMALY":"263.1719","CENTER_NAME":"EARTH","PERIAPSIS":"538.460","REV_AT_EPOCH":"130","ELEMENT_SET_NO":"999","EPHEMERIS_TYPE":"0","EPOCH":"2022-10-02T22:00:00.999936","BSTAR":"0.00046993000000","TLE_LINE1":"1 53144U 22083N   22275.91667824  .00007198  00000-0  46993-3 0  9992","ARG_OF_PERICENTER":"42.2430","FILE":"3589751","CLASSIFICATION_TYPE":"U","MEAN_MOTION_DOT":"0.00007198","INCLINATION":"53.2191","MEAN_MOTION":"15.08838523","ECCENTRICITY":"0.00018640"},{"TLE_LINE1":"1 53145U 22083P   22275.91667824  .00013046  00000-0  83627-3 0  9997","ARG_OF_PERICENTER":"39.5288","FILE":"3589751","ELEMENT_SET_NO":"999","EPHEMERIS_TYPE":"0","EPOCH":"2022-10-02T22:00:00.999936","BSTAR":"0.00083627000000","ECCENTRICITY":"0.00020320","MEAN_MOTION_DOT":"0.00013046","CLASSIFICATION_TYPE":"U","INCLINATION":"53.2181","MEAN_MOTION":"15.08840145","GP_ID":"214051834","PERIAPSIS":"538.339","REV_AT_EPOCH":"130","MEAN_ANOMALY":"5.8976","CENTER_NAME":"EARTH","OBJECT_TYPE":"PAYLOAD","NORAD_CAT_ID":"53145","APOAPSIS":"541.151","RCS_SIZE":"LARGE","COUNTRY_CODE":"US","OBJECT_NAME":"STARLINK-4106","RA_OF_ASC_NODE":"42.5111","REF_FRAME":"TEME","SITE":"AFETR","OBJECT_ID":"2022-083P","TLE_LINE2":"2 53145  53.2181  42.5111 0002032  39.5288   5.8976 15.08840145  1301","PERIOD":"95.438","MEAN_ELEMENT_THEORY":"SGP4","SEMIMAJOR_AXIS":"6917.880","DECAY_DATE":null,"MEAN_MOTION_DDOT":"0.0000000000000","LAUNCH_DATE":"2022-07-17","TIME_SYSTEM":"UTC"},{"MEAN_ANOMALY":"279.0889","CENTER_NAME":"EARTH","PERIAPSIS":"538.503","REV_AT_EPOCH":"130","GP_ID":"214052572","MEAN_MOTION":"15.08847576","INCLINATION":"53.2188","CLASSIFICATION_TYPE":"U","MEAN_MOTION_DOT":"0.00007730","ECCENTRICITY":"0.00017620","BSTAR":"0.00050310000000","ELEMENT_SET_NO":"999","EPHEMERIS_TYPE":"0","EPOCH":"2022-10-02T22:00:00.999936","FILE":"3589751","TLE_LINE1":"1 53146U 22083Q   22275.91667824  .00007730  00000-0  50310-3 0  9994","ARG_OF_PERICENTER":"46.3452","TIME_SYSTEM":"UTC","LAUNCH_DATE":"2022-07-17","DECAY_DATE":null,"MEAN_MOTION_DDOT":"0.0000000000000","SEMIMAJOR_AXIS":"6917.857","MEAN_ELEMENT_THEORY":"SGP4","PERIOD":"95.437","TLE_LINE2":"2 53146  53.2188  42.5159 0001762  46.3452 279.0889 15.08847576  1302","OBJECT_ID":"2022-083Q","REF_FRAME":"TEME","SITE":"AFETR","COUNTRY_CODE":"US","RA_OF_ASC_NODE":"42.5159","OBJECT_NAME":"STARLINK-4099","APOAPSIS":"540.941","RCS_SIZE":"LARGE","NORAD_CAT_ID":"53146","OBJECT_TYPE":"PAYLOAD"},{"GP_ID":"214051997","MEAN_ANOMALY":"24.7650","CENTER_NAME":"EARTH","PERIAPSIS":"538.419","REV_AT_EPOCH":"130","EPOCH":"2022-10-02T22:00:00.999936","ELEMENT_SET_NO":"999","EPHEMERIS_TYPE":"0","BSTAR":"0.00102050000000","ARG_OF_PERICENTER":"40.6501","TLE_LINE1":"1 53147U 22083R   22275.91667824  .00015990  00000-0  10205-2 0  9990","FILE":"3589751","CLASSIFICATION_TYPE":"U","MEAN_MOTION_DOT":"0.00015990","INCLINATION":"53.2178","MEAN_MOTION":"15.08837760","ECCENTRICITY":"0.00019270","TLE_LINE2":"2 53147  53.2178  42.5109 0001927  40.6501  24.7650 15.08837760  1307","PERIOD":"95.438","REF_FRAME":"TEME","SITE":"AFETR","OBJECT_ID":"2022-083R","LAUNCH_DATE":"2022-07-17","TIME_SYSTEM":"UTC","MEAN_ELEMENT_THEORY":"SGP4","SEMIMAJOR_AXIS":"6917.887","DECAY_DATE":null,"MEAN_MOTION_DDOT":"0.0000000000000","NORAD_CAT_ID":"53147","OBJECT_TYPE":"PAYLOAD","APOAPSIS":"541.085","RCS_SIZE":"LARGE","COUNTRY_CODE":"US","OBJECT_NAME":"STARLINK-4094","RA_OF_ASC_NODE":"42.5109"},{"INCLINATION":"53.2186","MEAN_MOTION":"15.08839277","MEAN_MOTION_DOT":"0.00011038","CLASSIFICATION_TYPE":"U","ECCENTRICITY":"0.00019690","BSTAR":"0.00071051000000","ELEMENT_SET_NO":"999","EPOCH":"2022-10-02T22:00:00.999936","EPHEMERIS_TYPE":"0","FILE":"3589751","TLE_LINE1":"1 53148U 22083S   22275.91667824  .00011038  00000-0  71051-3 0  9997","ARG_OF_PERICENTER":"35.6404","CENTER_NAME":"EARTH","MEAN_ANOMALY":"349.7703","REV_AT_EPOCH":"130","PERIAPSIS":"538.385","GP_ID":"214052147","RA_OF_ASC_NODE":"42.5123","OBJECT_NAME":"STARLINK-4066","COUNTRY_CODE":"US","RCS_SIZE":"LARGE","APOAPSIS":"541.110","NORAD_CAT_ID":"53148","OBJECT_TYPE":"PAYLOAD","TIME_SYSTEM":"UTC","LAUNCH_DATE":"2022-07-17","MEAN_MOTION_DDOT":"0.0000000000000","DECAY_DATE":null,"MEAN_ELEMENT_THEORY":"SGP4","SEMIMAJOR_AXIS":"6917.883","PERIOD":"95.438","TLE_LINE2":"2 53148  53.2186  42.5123 0001969  35.6404 349.7703 15.08839277  1309","OBJECT_ID":"2022-083S","SITE":"AFETR","REF_FRAME":"TEME"},{"GP_ID":"214051418","CENTER_NAME":"EARTH","MEAN_ANOMALY":"328.7813","REV_AT_EPOCH":"130","PERIAPSIS":"538.572","EPHEMERIS_TYPE":"0","ELEMENT_SET_NO":"999","EPOCH":"2022-10-02T22:00:00.999936","BSTAR":"-0.00442790000000","TLE_LINE1":"1 53149U 22083T   22275.91667824 -.00070097  00000-0 -44279-2 0  9991","ARG_OF_PERICENTER":"51.6812","FILE":"3589751","CLASSIFICATION_TYPE":"U","MEAN_MOTION_DOT":"-0.00070097","INCLINATION":"53.2170","MEAN_MOTION":"15.08852717","ECCENTRICITY":"0.00016400","TLE_LINE2":"2 53149  53.2170  32.5151 0001640  51.6812 328.7813 15.08852717  1303","PERIOD":"95.437","SITE":"AFETR","REF_FRAME":"TEME","OBJECT_ID":"2022-083T","LAUNCH_DATE":"2022-07-17","TIME_SYSTEM":"UTC","MEAN_ELEMENT_THEORY":"SGP4","SEMIMAJOR_AXIS":"6917.842","MEAN_MOTION_DDOT":"0.0000000000000","DECAY_DATE":null,"NORAD_CAT_ID":"53149","OBJECT_TYPE":"PAYLOAD","RCS_SIZE":"LARGE","APOAPSIS":"540.841","OBJECT_NAME":"STARLINK-4021","RA_OF_ASC_NODE":"32.5151","COUNTRY_CODE":"US"},{"ECCENTRICITY":"0.00020560","MEAN_MOTION":"15.08881985","INCLINATION":"53.2125","MEAN_MOTION_DOT":"-0.00031503","CLASSIFICATION_TYPE":"U","FILE":"3589751","TLE_LINE1":"1 53150U 22083U   22275.91667824 -.00031503  00000-0 -19676-2 0  9995","ARG_OF_PERICENTER":"35.5231","BSTAR":"-0.00196760000000","EPHEMERIS_TYPE":"0","ELEMENT_SET_NO":"999","EPOCH":"2022-10-02T22:00:00.999936","REV_AT_EPOCH":"130","PERIAPSIS":"538.195","CENTER_NAME":"EARTH","MEAN_ANOMALY":"124.8226","GP_ID":"214052316","RA_OF_ASC_NODE":"32.5305","OBJECT_NAME":"STARLINK-4038","COUNTRY_CODE":"US","RCS_SIZE":"LARGE","APOAPSIS":"541.039","OBJECT_TYPE":"PAYLOAD","NORAD_CAT_ID":"53150","MEAN_MOTION_DDOT":"0.0000000000000","DECAY_DATE":null,"SEMIMAJOR_AXIS":"6917.752","MEAN_ELEMENT_THEORY":"SGP4","TIME_SYSTEM":"UTC","LAUNCH_DATE":"2022-07-17","OBJECT_ID":"2022-083U","SITE":"AFETR","REF_FRAME":"TEME","PERIOD":"95.435","TLE_LINE2":"2 53150  53.2125  32.5305 0002056  35.5231 124.8226 15.08881985  1306"},{"ELEMENT_SET_NO":"999","EPHEMERIS_TYPE":"0","EPOCH":"2022-10-02T22:00:00.999936","BSTAR":"0.00022491000000","TLE_LINE1":"1 53151U 22083V   22275.91667824  .00003295  00000-0  22491-3 0  9991","ARG_OF_PERICENTER":"46.7003","FILE":"3589751","CLASSIFICATION_TYPE":"U","MEAN_MOTION_DOT":"0.00003295","INCLINATION":"53.2119","MEAN_MOTION":"15.08856120","ECCENTRICITY":"0.00018740","GP_ID":"214051582","MEAN_ANOMALY":"173.6273","CENTER_NAME":"EARTH","PERIAPSIS":"538.400","REV_AT_EPOCH":"130","NORAD_CAT_ID":"53151","OBJECT_TYPE":"PAYLOAD","APOAPSIS":"540.993","RCS_SIZE":"LARGE","COUNTRY_CODE":"US","OBJECT_NAME":"STARLINK-4040","RA_OF_ASC_NODE":"32.5276","TLE_LINE2":"2 53151  53.2119  32.5276 0001874  46.7003 173.6273 15.08856120  1302","PERIOD":"95.437","REF_FRAME":"TEME","SITE":"AFETR","OBJECT_ID":"2022-083V","LAUNCH_DATE":"2022-07-17","TIME_SYSTEM":"UTC","MEAN_ELEMENT_THEORY":"SGP4","SEMIMAJOR_AXIS":"6917.831","DECAY_DATE":null,"MEAN_MOTION_DDOT":"0.0000000000000"},{"OBJECT_NAME":"STARLINK-4045","RA_OF_ASC_NODE":"32.5292","COUNTRY_CODE":"US","RCS_SIZE":"LARGE","APOAPSIS":"540.908","OBJECT_TYPE":"PAYLOAD","NORAD_CAT_ID":"53152","MEAN_MOTION_DDOT":"0.0000000000000","DECAY_DATE":null,"SEMIMAJOR_AXIS":"6917.794","MEAN_ELEMENT_THEORY":"SGP4","TIME_SYSTEM":"UTC","LAUNCH_DATE":"2022-07-17","OBJECT_ID":"2022-083W","SITE":"AFETR","REF_FRAME":"TEME","PERIOD":"95.436","TLE_LINE2":"2 53152  53.2117  32.5292 0001806  42.5019 137.8847 15.08868418  1307","ECCENTRICITY":"0.00018060","INCLINATION":"53.2117","MEAN_MOTION":"15.08868418","CLASSIFICATION_TYPE":"U","MEAN_MOTION_DOT":"-0.00028684","FILE":"3589751","ARG_OF_PERICENTER":"42.5019","TLE_LINE1":"1 53152U 22083W   22275.91667824 -.00028684  00000-0 -17899-2 0  9998","BSTAR":"-0.00178990000000","ELEMENT_SET_NO":"999","EPHEMERIS_TYPE":"0","EPOCH":"2022-10-02T22:00:00.999936","REV_AT_EPOCH":"130","PERIAPSIS":"538.409","CENTER_NAME":"EARTH","MEAN_ANOMALY":"137.8847","GP_ID":"214051731"},{"PERIAPSIS":"538.506","REV_AT_EPOCH":"130","MEAN_ANOMALY":"193.4470","CENTER_NAME":"EARTH","GP_ID":"214051835","ECCENTRICITY":"0.00017110","MEAN_MOTION_DOT":"-0.00003660","CLASSIFICATION_TYPE":"U","INCLINATION":"53.2120","MEAN_MOTION":"15.08858275","ARG_OF_PERICENTER":"46.9150","TLE_LINE1":"1 53153U 22083X   22275.91667824 -.00003660  00000-0 -21184-3 0  9999","FILE":"3589751","EPHEMERIS_TYPE":"0","ELEMENT_SET_NO":"999","EPOCH":"2022-10-02T22:00:00.999936","BSTAR":"-0.00021184000000","MEAN_ELEMENT_THEORY":"SGP4","SEMIMAJOR_AXIS":"6917.825","DECAY_DATE":null,"MEAN_MOTION_DDOT":"0.0000000000000","LAUNCH_DATE":"2022-07-17","TIME_SYSTEM":"UTC","REF_FRAME":"TEME","SITE":"AFETR","OBJECT_ID":"2022-083X","TLE_LINE2":"2 53153  53.2120  32.5280 0001711  46.9150 193.4470 15.08858275  1308","PERIOD":"95.436","APOAPSIS":"540.873","RCS_SIZE":"LARGE","COUNTRY_CODE":"US","RA_OF_ASC_NODE":"32.5280","OBJECT_NAME":"STARLINK-4098","OBJECT_TYPE":"PAYLOAD","NORAD_CAT_ID":"53153"}];
